#dP2023  3 31  0  0  0.00000000      96 __u+U ITR00 EXT  IAC
## 2255 432000.00000000   900.00000000 60034 0.0000000000000
+  119   C06C07C08C09C10C11C12C13C14C16C19C20C21C22C23C24C25
+        C26C27C28C29C30C32C33C34C35C36C37C38C39C40C41C42C43
+        C44C45C46E01E02E03E04E05E07E08E09E10E11E12E13E14E15
+        E18E19E21E25E26E27E30E31E33E34E36G01G02G03G04G05G06
+        G07G08G09G10G11G12G13G14G15G16G17G18G19G20G21G22G23
+        G24G25G26G27G28G29G30G31G32J02J03J04R01R02R03R04R05
+        R07R08R09R11R12R13R14R15R16R17R18R19R20R21R22R24R25
++        12 10 10 12 10  8  7  9 10 10  8  8  9  9  8  7  9
++         9  8  7  9  8  9  9  8  8  9 10 10 11 11 10  8  8
++         9  8  9  7  7  6  7  7  8  6  6  6  8  6  8  7  8
++         8  7  7  7  7  8  8  7  6  7  6  7  7  6  6  6  6
++         8  8  6  6  7  7  7  6  8  6  7  6  8  7  7  8  7
++         9  7  7  7 10  7  7  8  7 11 10 11  9  7  7  8  8
++         8  8  9  7  7  8  8  7  9  7  7  9 10  9  8  9  9
%c M  cc GPS ccc cccc cccc cccc cccc ccccc ccccc ccccc ccccc
%c cc cc ccc ccc cccc cccc cccc cccc ccccc ccccc ccccc ccccc
%f  0.0000000  0.000000000  0.00000000000  0.000000000000000
%f  0.0000000  0.000000000  0.00000000000  0.000000000000000
%i    0    0    0    0      0      0      0      0         0
%i    0    0    0    0      0      0      0      0         0
/* IAC                                ULTRA-RAPID PREDICTION
/* S/V CLOCKS ARE ALIGNED TO GNSS TIME                      
/* G:C1WC2W R:C1PC2P E:C1XC5X C:C2IC6I J:C1CC2S             
/* PCV:IGS20_2247 OL/AL:FES2004  NONE     YN ORB:CoN CLK:CoN
*  2023 03 31  6  0  0.00000000
PC06  -4099.105592  37429.850442 -18676.431664   -197.133399
PC07 -11379.509650  25510.064480  31596.812119    -99.621062
PC08 -19519.070856  33918.145847 -15913.906508    512.142884
PC09   1853.452732  40655.583109  -9469.046775    821.264125
PC10  -1963.373047  27334.945328  32346.513470    -21.747419
PC11  10363.995487 -12941.959411 -22380.338772    735.846971
PC12  17908.764640   6698.348973 -20291.716779    540.643829
PC13 -13463.040601  34250.793577 -20646.762251    241.925312
PC14  20166.152186 -10039.698711  16533.407847     60.751295
PC16  -5387.976730  35946.334089 -20888.572550    123.421049
PC19 -10752.487330  14021.483786 -21561.495786   -898.228698
PC20 -25329.512775   5374.613496 -10343.147108    651.553939
PC21  25742.099671   7237.163665  -8010.438547   -909.003189
PC22  10776.044485  15036.515938 -20896.605053   -559.319009
PC23   -611.263666 -21702.913910 -17530.316161   -896.849262
PC24  20631.493834 -11661.350053  14700.191277   -229.183859
PC25  13062.006962 -24464.888444  -3011.399364     97.442844
PC26  15630.347552   5484.102561  22438.340447    -99.505150
PC27 -18413.711962 -14923.490917  14721.791366    118.536447
PC28 -11413.526084 -25451.463009   -889.645141     87.081777
PC29  -2697.864681  21411.275190  17680.940968    100.723423
PC30 -15692.749979   4148.300098  22692.426632      0.638788
PC32 -25726.860927  -7116.318496   8132.865219   -588.319183
PC33  10806.603520 -14101.615403  21536.034039   -871.659881
PC34  15099.237737  -5580.989387 -22807.357632    138.410119
PC35  11715.186144  25236.223620   1821.125037    654.799143
PC36 -14084.067462  23983.816472   2335.627835   -530.677369
PC37 -14759.093253  -7125.379951 -22579.546407   -795.241024
PC38 -23938.072214  34031.674809  -7204.396098     68.573612
PC39  -8016.967281  32082.648856 -25987.491994     -2.373581
PC40 -15707.395999  18955.944707  34175.307794    -19.023909
PC41 -10062.754151 -15191.905972  21190.649726   -790.287865
PC42  25952.155519  -4672.217280   9225.325416   -760.230718
PC43   3475.310381 -20952.452067 -18126.772727     14.379670
PC44  19019.946619  14300.881259 -14561.933437     61.074327
PC45    877.672858  21431.369769  17858.492962    -79.006544
PC46 -20562.512142  13205.207094 -13514.830601    -43.632650
PE01  12153.792287 -19509.671308 -18651.846070     -9.573895
PE02 -11709.435858  19515.844315  18926.714832     29.523090
PE03    521.902623  19530.685849 -22236.670914   -664.487395
PE04 -18514.463534 -21146.350928   9296.514601    -90.141315
PE05 -18251.329439   6362.627406 -22409.927245    -81.326746
PE07  26079.418420  10460.479674   9332.521105    -33.968525
PE08  18443.357110  21112.831558  -9512.451066    -59.744166
PE09 -26054.466078 -10602.155952  -9186.926268   -888.030401
PE10 -12254.991505 -16553.317709  21254.645552   -522.996470
PE11 -15573.302367  -4961.238014  24670.524543   1440.518270
PE12  -7362.880540 -24559.633352  14811.871153   -479.624076
PE13  15353.902430   5858.055241 -24614.526454    -18.153582
PE14  16560.069881  23024.849606   7411.566418    183.609116
PE15   7170.832769  24741.052388 -14564.020362    -11.205172
PE18  -4287.319888 -22106.863813 -15979.793330   -221.007525
PE19   2233.351267 -18226.396724  23228.443044  -2879.599323
PE21  25644.964984 -14346.110090  -3551.147818   -520.617989
PE25 -25795.580726  14164.484729   3219.049850   -602.368905
PE26  14364.055109 -16956.464322 -19553.233342     61.231482
PE27  25643.219580   -546.496795  14761.013424    -13.373632
PE30   9873.962037  13846.614990  24210.179984    -54.317312
PE31 -10548.825591 -13421.492728 -24181.586042   -520.009754
PE33   5178.407097 -28877.467045  -3996.958879   -447.598894
PE34  -5029.895979  28914.772457   3840.354478    -37.716810
PE36 -14445.940118  16187.425730  20130.362860    -34.231559
PG01 -13285.610992  15904.487654  16075.956324    197.606426
PG02  10512.456832 -20125.774684 -13358.022415   -610.240240
PG03 -22307.861374  13103.852020  -5847.713231   -339.595255
PG04 -13452.483616   8138.291457 -21410.074879      5.424456
PG05  24475.822329  -3396.232477 -10068.107217   -121.556133
PG06   6153.562094  21465.592497 -14238.474269    584.724898
PG07  -6583.244663  25076.906031  -3952.581648    211.837878
PG08 -21494.095709  -2428.864832  15604.450787   -115.499616
PG09  -2752.039238  16348.031810 -20813.334975   -189.864233
PG10  -4414.401434 -14292.167768  22114.204959    -30.798767
PG11  13297.841091   8681.471861 -21285.574801   -147.007113
PG12  24015.652874 -10580.585965  -4030.915088   -358.089198
PG13  21354.748541  11016.190247  11359.736039    498.649398
PG14    907.311124  15871.832552  21266.741699     11.018766
PG15  21568.854594   -453.412881  15211.661166     26.350420
PG16 -23935.514170  -1649.778264 -12182.104761   -512.104494
PG17   9684.012769  20953.580213  13475.731481    708.254522
PG18   4727.979327 -26047.198330   -624.433733   -203.124731
PG19  16985.372148  20228.643258   3759.385395    297.247912
PG20  19345.759915   3217.241793 -17786.362787    441.770304
PG21 -15182.058357   6559.162340  21172.245421    154.315921
PG22 -18644.690324 -19003.750937   1649.486811    455.382025
PG23   8673.527961 -17242.903890  18184.891943     13.759323
PG24  14297.226191 -12018.689671  18372.644238   -133.147591
PG25  16535.835330 -16523.930810 -12664.357484    431.935433
PG26 -15081.283055  -9214.691099 -20032.133099    241.942097
PG27 -22842.732969 -12225.420175   6528.090717     69.297147
PG28  -6234.090966 -22639.666450 -12444.104669     55.826327
PG29   7347.940788 -13273.516470 -21843.264533   -593.380273
PG30   1682.637590  25297.150889   7547.685307   -524.603058
PG31  -9574.342697 -17525.864141 -17466.499869   -212.877920
PG32 -13465.821340 -20265.198418  11062.436670   -438.553257
PJ02 -30994.988783  27136.616775  14121.919992     -1.359845
PJ03 -26616.755520  24928.985594  26225.455082      1.588271
PJ04 -31773.070235  20235.344211 -13807.695391     94.150497
PR01 -23587.411229  -8057.628577   5392.949453     25.781232
PR02 -22020.254213    402.012149 -12874.398046    -23.028977
PR03  -7641.580222   9043.025929 -22548.912399     75.167535
PR04  10659.512768  12269.624294 -19620.961067    181.471869
PR05  23083.703102   9029.029036  -5959.546017    110.198872
PR07   6691.267758  -9396.407145  22791.780860     52.841124
PR08 -10876.632547 -12348.734531  19564.863513    -70.141024
PR09  19252.042140 -13064.914927  10560.581304    112.108578
PR11   2464.954861 -16113.437313 -19618.014144    -27.502354
PR12 -12782.092851  -1916.537251 -21973.572903     26.080303
PR13 -19104.793996  11659.730899 -12257.536026    -33.468701
PR14 -14514.730241  19880.107264   6665.510412     24.486006
PR15  -1522.414526  15525.677908  20194.817986     90.100849
PR16  12482.878565   2022.205415  22162.419747     12.994840
PR17  -1891.881140  20070.418785  15655.474788    616.977322
PR18   6442.052829  24649.438303     99.081727     74.159727
PR19  10809.852480  17967.305598 -14524.290261   -227.279167
PR20   9958.568720  -2817.392339 -23308.459330    -90.283194
PR21   1080.598132 -21055.715132 -14347.376352   -384.389043
PR22  -6022.163581 -24783.818177    870.307394     77.226286
PR24 -10152.043023   3911.666397  23086.202008    158.096639
PR25   3160.445949 -19820.672917 -15730.017627     59.250106
EOF
